[{"OBJECT_NAME":"ONEWEB-0183","OBJECT_ID":"2021-031K","EPOCH":"2026-03-09T16:56:14.764416","MEAN_MOTION":13.14502732,"ECCENTRICITY":0.00015796,"INCLINATION":87.8987,"RA_OF_ASC_NODE":309.5571,"ARG_OF_PERICENTER":74.0743,"MEAN_ANOMALY":286.0561,"EPHEMERIS_TYPE":0,"CLASSIFICATION_TYPE":"U","NORAD_CAT_ID":48219,"ELEMENT_SET_NO":999,"REV_AT_EPOCH":23525,"BSTAR":-0.00024600886,"MEAN_MOTION_DOT":-7.8e-7,"MEAN_MOTION_DDOT":0},{"OBJECT_NAME":"OBJECT G","OBJECT_ID":"2021-014G","EPOCH":"2026-03-09T15:36:30.755808","MEAN_MOTION":13.41597045,"ECCENTRICITY":0.0151861,"INCLINATION":63.396,"RA_OF_ASC_NODE":124.6852,"ARG_OF_PERICENTER":358.9657,"MEAN_ANOMALY":1.1031,"EPHEMERIS_TYPE":0,"CLASSIFICATION_TYPE":"U","NORAD_CAT_ID":47697,"ELEMENT_SET_NO":999,"REV_AT_EPOCH":24664,"BSTAR":0.00031318,"MEAN_MOTION_DOT":9.8e-7,"MEAN_MOTION_DDOT":0}]
